{"displayFieldName":"","fieldAliases":{"FID":"FID","OBJECTID":"OBJECTID","RecordID":"RecordID","MapID":"MapID","X":"X","Y":"Y","Name":"Name","DistrictID":"DistrictID","SearchCode":"SearchCode","PinYin":"PinYin","POIUID":"POIUID","Angle":"Angle"},"geometryType":"esriGeometryPoint","spatialReference":{"wkid":null},"fields":[{"name":"FID","type":"esriFieldTypeOID","alias":"FID"},{"name":"OBJECTID","type":"esriFieldTypeInteger","alias":"OBJECTID"},{"name":"RecordID","type":"esriFieldTypeInteger","alias":"RecordID"},{"name":"MapID","type":"esriFieldTypeInteger","alias":"MapID"},{"name":"X","type":"esriFieldTypeSingle","alias":"X"},{"name":"Y","type":"esriFieldTypeSingle","alias":"Y"},{"name":"Name","type":"esriFieldTypeString","alias":"Name","length":254},{"name":"DistrictID","type":"esriFieldTypeInteger","alias":"DistrictID"},{"name":"SearchCode","type":"esriFieldTypeInteger","alias":"SearchCode"},{"name":"PinYin","type":"esriFieldTypeString","alias":"PinYin","length":254},{"name":"POIUID","type":"esriFieldTypeInteger","alias":"POIUID"},{"name":"Angle","type":"esriFieldTypeSingle","alias":"Angle"}],"features":[{"attributes":{"FID":0,"OBJECTID":1,"RecordID":868982855,"MapID":650018001,"X":100,"Y":20,"Name":"海关综合大楼","DistrictID":440304,"SearchCode":19160100,"PinYin":"hai guan zhong he da lou","POIUID":17406432,"Angle":89.1854},"geometry":{"x":114.06097342767661,"y":22.543470691915097}},{"attributes":{"FID":1,"OBJECTID":2,"RecordID":868982925,"MapID":650018001,"X":100,"Y":20,"Name":"岗厦北地铁站2","DistrictID":440304,"SearchCode":19160100,"PinYin":"gang sha bei di tie zhan er","POIUID":17403898,"Angle":269.958},"geometry":{"x":114.064272,"y":22.542087851061311}},{"attributes":{"FID":2,"OBJECTID":3,"RecordID":868982542,"MapID":650018001,"X":100,"Y":20,"Name":"岗厦北地铁站2","DistrictID":440304,"SearchCode":19160100,"PinYin":"gang sha bei di tie zhan er","POIUID":173036515,"Angle":92.4804},"geometry":{"x":114.06438786161696,"y":22.543326135831137}},{"attributes":{"FID":3,"OBJECTID":4,"RecordID":868985175,"MapID":650018001,"X":100,"Y":20,"Name":"海关综合大楼","DistrictID":440304,"SearchCode":19160100,"PinYin":"hai guan zhong he da lou","POIUID":17404520,"Angle":271.475},"geometry":{"x":114.060361,"y":22.542001276766037}},{"attributes":{"FID":4,"OBJECTID":5,"RecordID":868985311,"MapID":650018001,"X":100,"Y":20,"Name":"市民广场东","DistrictID":440304,"SearchCode":19160100,"PinYin":"shi min guang chang dong","POIUID":17406969,"Angle":284.016},"geometry":{"x":114.05609556919153,"y":22.542121912964465}},{"attributes":{"FID":5,"OBJECTID":6,"RecordID":868985312,"MapID":650018001,"X":100,"Y":20,"Name":"市民广场东","DistrictID":440304,"SearchCode":19160100,"PinYin":"shi min guang chang dong","POIUID":17406968,"Angle":78.6256},"geometry":{"x":114.05611848716313,"y":22.543127651219891}},{"attributes":{"FID":6,"OBJECTID":7,"RecordID":868985381,"MapID":650018001,"X":100,"Y":20,"Name":"深航大厦2","DistrictID":440304,"SearchCode":19160100,"PinYin":"shen hang da sha er","POIUID":17404217,"Angle":99.2193},"geometry":{"x":114.015148,"y":22.538340999999999}},{"attributes":{"FID":7,"OBJECTID":8,"RecordID":868985964,"MapID":650018001,"X":100,"Y":20,"Name":"深航大厦1","DistrictID":440304,"SearchCode":19160100,"PinYin":"shen hang da sha yi","POIUID":17454080,"Angle":99.2193},"geometry":{"x":114.01533999999999,"y":22.538371999999999}},{"attributes":{"FID":8,"OBJECTID":9,"RecordID":868985967,"MapID":650018001,"X":100,"Y":20,"Name":"深南香蜜立交","DistrictID":440304,"SearchCode":19160100,"PinYin":"shen nan xiang mi li jiao","POIUID":173009726,"Angle":100.141},"geometry":{"x":114.02610636743603,"y":22.540314673703712}},{"attributes":{"FID":9,"OBJECTID":10,"RecordID":868985972,"MapID":650018001,"X":100,"Y":20,"Name":"深圳人才园","DistrictID":440304,"SearchCode":19160100,"PinYin":"shen zhen ren cai yuan","POIUID":17404218,"Angle":100.913},"geometry":{"x":114.001552241078,"y":22.536038035688048}},{"attributes":{"FID":10,"OBJECTID":11,"RecordID":868986104,"MapID":650018001,"X":100,"Y":20,"Name":"深航大厦2","DistrictID":440304,"SearchCode":19160100,"PinYin":"shen hang da sha er","POIUID":17404103,"Angle":280.412},"geometry":{"x":114.015163,"y":22.537686000000001}},{"attributes":{"FID":11,"OBJECTID":12,"RecordID":868986701,"MapID":650018001,"X":100,"Y":20,"Name":"岗厦北地铁站1","DistrictID":440304,"SearchCode":19160100,"PinYin":"gang sha bei di tie zhan yi","POIUID":17454085,"Angle":92.4804},"geometry":{"x":114.0658935691915,"y":22.5432919060434}},{"attributes":{"FID":12,"OBJECTID":13,"RecordID":868986726,"MapID":650018001,"X":100,"Y":20,"Name":"广电大厦2","DistrictID":440304,"SearchCode":19160100,"PinYin":"guang dian da sha er","POIUID":17404077,"Angle":91.1678},"geometry":{"x":114.0482177138383,"y":22.542676495302167}},{"attributes":{"FID":13,"OBJECTID":14,"RecordID":868985702,"MapID":650018001,"X":100,"Y":20,"Name":"深南香蜜立交2","DistrictID":440304,"SearchCode":19160100,"PinYin":"shen nan xiang mi li jiao er","POIUID":17454161,"Angle":100.141},"geometry":{"x":114.02625010706416,"y":22.540241020028606}},{"attributes":{"FID":14,"OBJECTID":15,"RecordID":868986992,"MapID":650018001,"X":100,"Y":20,"Name":"广电大厦1","DistrictID":440304,"SearchCode":19160100,"PinYin":"guang dian da sha yi","POIUID":17452007,"Angle":91.1678},"geometry":{"x":114.047715,"y":22.542668852221318}},{"attributes":{"FID":15,"OBJECTID":16,"RecordID":868987059,"MapID":650018001,"X":100,"Y":20,"Name":"岗厦北地铁站1","DistrictID":440304,"SearchCode":19160100,"PinYin":"gang sha bei di tie zhan yi","POIUID":17454084,"Angle":269.958},"geometry":{"x":114.06572300000001,"y":22.542143973784896}},{"attributes":{"FID":16,"OBJECTID":17,"RecordID":868987941,"MapID":650018001,"X":100,"Y":20,"Name":"深南香蜜立交2","DistrictID":440304,"SearchCode":19160100,"PinYin":"shen nan xiang mi li jiao er","POIUID":17454162,"Angle":280.009},"geometry":{"x":114.025779758922,"y":22.539521675018371}},{"attributes":{"FID":17,"OBJECTID":18,"RecordID":868988046,"MapID":650018001,"X":100,"Y":20,"Name":"深南香蜜立交1","DistrictID":440304,"SearchCode":19160100,"PinYin":"shen nan xiang mi li jiao yi","POIUID":17404216,"Angle":100.141},"geometry":{"x":114.02605349781541,"y":22.540202794610053}},{"attributes":{"FID":18,"OBJECTID":19,"RecordID":868988118,"MapID":650018001,"X":100,"Y":20,"Name":"香蜜湖2","DistrictID":440304,"SearchCode":19160100,"PinYin":"xiang mi hu er","POIUID":17454194,"Angle":279.748},"geometry":{"x":114.03477456919153,"y":22.541055157174341}},{"attributes":{"FID":19,"OBJECTID":20,"RecordID":868988119,"MapID":650018001,"X":100,"Y":20,"Name":"香蜜湖2","DistrictID":440304,"SearchCode":19160100,"PinYin":"xiang mi hu er","POIUID":17454193,"Angle":100.539},"geometry":{"x":114.03119700000001,"y":22.541058}},{"attributes":{"FID":20,"OBJECTID":21,"RecordID":868988163,"MapID":650018001,"X":100,"Y":20,"Name":"园博园2","DistrictID":440304,"SearchCode":19160100,"PinYin":"yuan bo yuan er","POIUID":17454209,"Angle":97.8037},"geometry":{"x":113.99648857232339,"y":22.535224113327917}},{"attributes":{"FID":21,"OBJECTID":22,"RecordID":868988173,"MapID":650018001,"X":100,"Y":20,"Name":"招商银行大厦1","DistrictID":440304,"SearchCode":19160100,"PinYin":"zhao shang yin hang da sha yi","POIUID":17454079,"Angle":96.4298},"geometry":{"x":114.01884662053899,"y":22.539155656227042}},{"attributes":{"FID":22,"OBJECTID":23,"RecordID":868988496,"MapID":650018001,"X":100,"Y":20,"Name":"市民广场西","DistrictID":440304,"SearchCode":19160100,"PinYin":"shi min guang chang xi","POIUID":17406967,"Angle":258.628},"geometry":{"x":114.05301319286239,"y":22.542091675018369}},{"attributes":{"FID":23,"OBJECTID":24,"RecordID":868988539,"MapID":650018001,"X":100,"Y":20,"Name":"投资大厦2","DistrictID":440304,"SearchCode":19160100,"PinYin":"tou zi da sha er","POIUID":17453297,"Angle":271.653},"geometry":{"x":114.04785699999999,"y":22.542300626802774}},{"attributes":{"FID":24,"OBJECTID":25,"RecordID":868987883,"MapID":650018001,"X":100,"Y":20,"Name":"香蜜湖1","DistrictID":440304,"SearchCode":19160100,"PinYin":"xiang mi hu yi","POIUID":17404105,"Angle":279.748},"geometry":{"x":114.03572394865252,"y":22.54122096431195}},{"attributes":{"FID":25,"OBJECTID":26,"RecordID":868987884,"MapID":650018001,"X":100,"Y":20,"Name":"香蜜湖1","DistrictID":440304,"SearchCode":19160100,"PinYin":"xiang mi hu yi","POIUID":17404215,"Angle":99.5401},"geometry":{"x":114.032933,"y":22.541350999999999}},{"attributes":{"FID":26,"OBJECTID":27,"RecordID":868989440,"MapID":650018001,"X":100,"Y":20,"Name":"招商银行大厦2","DistrictID":440304,"SearchCode":19160100,"PinYin":"zhao shang yin hang da sha er","POIUID":17448143,"Angle":280.116},"geometry":{"x":114.01767307075745,"y":22.538155360051043}},{"attributes":{"FID":27,"OBJECTID":28,"RecordID":868989454,"MapID":650018001,"X":100,"Y":20,"Name":"竹子林1","DistrictID":440304,"SearchCode":19160100,"PinYin":"zhu zi lin yi","POIUID":17454215,"Angle":99.8542},"geometry":{"x":114.00737421540424,"y":22.537052852221318}},{"attributes":{"FID":28,"OBJECTID":29,"RecordID":868989571,"MapID":650018001,"X":100,"Y":20,"Name":"深航大厦1","DistrictID":440304,"SearchCode":19160100,"PinYin":"shen hang da sha yi","POIUID":17454081,"Angle":280.412},"geometry":{"x":114.01559399999999,"y":22.537763999999999}},{"attributes":{"FID":29,"OBJECTID":30,"RecordID":868989612,"MapID":650018001,"X":100,"Y":20,"Name":"特区报社1","DistrictID":440304,"SearchCode":19160100,"PinYin":"te qu bao she yi","POIUID":17454179,"Angle":277.086},"geometry":{"x":114.04012528302981,"y":22.541932157174344}},{"attributes":{"FID":30,"OBJECTID":31,"RecordID":868989613,"MapID":650018001,"X":100,"Y":20,"Name":"特区报社2","DistrictID":440304,"SearchCode":19160100,"PinYin":"te qu bao she er","POIUID":17404078,"Angle":99.887},"geometry":{"x":114.0386565723234,"y":22.54234098747245}},{"attributes":{"FID":31,"OBJECTID":32,"RecordID":868989715,"MapID":650018001,"X":100,"Y":20,"Name":"招商银行大厦2","DistrictID":440304,"SearchCode":19160100,"PinYin":"zhao shang yin hang da sha er","POIUID":17404079,"Angle":109.183},"geometry":{"x":114.017453,"y":22.538796000000001}},{"attributes":{"FID":32,"OBJECTID":33,"RecordID":868989524,"MapID":650018001,"X":100,"Y":20,"Name":"深航大厦","DistrictID":440304,"SearchCode":19160100,"PinYin":"shen hang da sha","POIUID":173033896,"Angle":99.2193},"geometry":{"x":114.01459496431194,"y":22.538299757027403}},{"attributes":{"FID":33,"OBJECTID":34,"RecordID":868989825,"MapID":650018001,"X":100,"Y":20,"Name":"深圳人才园1","DistrictID":440304,"SearchCode":19160100,"PinYin":"shen zhen ren cai yuan yi","POIUID":17404301,"Angle":279.222},"geometry":{"x":114.0043182830298,"y":22.535851295557361}},{"attributes":{"FID":34,"OBJECTID":35,"RecordID":868989942,"MapID":650018001,"X":100,"Y":20,"Name":"特区报社1","DistrictID":440304,"SearchCode":19160100,"PinYin":"te qu bao she yi","POIUID":17454180,"Angle":96.2094},"geometry":{"x":114.0400051446468,"y":22.542541993736229}},{"attributes":{"FID":35,"OBJECTID":36,"RecordID":868991146,"MapID":650018001,"X":100,"Y":20,"Name":"竹子林2","DistrictID":440304,"SearchCode":19160100,"PinYin":"zhu zi lin er","POIUID":17404102,"Angle":279.634},"geometry":{"x":114.00736056605962,"y":22.536363976839503}},{"attributes":{"FID":36,"OBJECTID":37,"RecordID":868991180,"MapID":650018001,"X":100,"Y":20,"Name":"招商银行大厦3","DistrictID":440304,"SearchCode":19160100,"PinYin":"zhao shang yin hang da sha san","POIUID":17454210,"Angle":101.194},"geometry":{"x":114.016919,"y":22.538640999999998}},{"attributes":{"FID":37,"OBJECTID":38,"RecordID":868991196,"MapID":650018001,"X":100,"Y":20,"Name":"园博园1","DistrictID":440304,"SearchCode":19160100,"PinYin":"yuan bo yuan yi","POIUID":17406704,"Angle":279.446},"geometry":{"x":113.99940266249082,"y":22.535047350036734}},{"attributes":{"FID":38,"OBJECTID":39,"RecordID":868991202,"MapID":650018001,"X":100,"Y":20,"Name":"招商银行大厦1","DistrictID":440304,"SearchCode":19160100,"PinYin":"zhao shang yin hang da sha yi","POIUID":17454078,"Angle":279.711},"geometry":{"x":114.02056116405676,"y":22.538630964311956}},{"attributes":{"FID":39,"OBJECTID":40,"RecordID":868991310,"MapID":650018001,"X":100,"Y":20,"Name":"特区报社2","DistrictID":440304,"SearchCode":19160100,"PinYin":"te qu bao she er","POIUID":17404106,"Angle":279.842},"geometry":{"x":114.0388958553532,"y":22.541758675018372}},{"attributes":{"FID":40,"OBJECTID":41,"RecordID":868991322,"MapID":650018001,"X":100,"Y":20,"Name":"投资大厦1","DistrictID":440304,"SearchCode":19160100,"PinYin":"tou zi da sha yi","POIUID":17403897,"Angle":271.68},"geometry":{"x":114.04842048716313,"y":22.542311723233965}},{"attributes":{"FID":41,"OBJECTID":42,"RecordID":868991405,"MapID":650018001,"X":100,"Y":20,"Name":"园博园1","DistrictID":440304,"SearchCode":19160100,"PinYin":"yuan bo yuan yi","POIUID":17406705,"Angle":99.8632},"geometry":{"x":113.99786867188648,"y":22.535411881645594}},{"attributes":{"FID":42,"OBJECTID":43,"RecordID":868991503,"MapID":650018001,"X":100,"Y":20,"Name":"竹子林1","DistrictID":440304,"SearchCode":19160100,"PinYin":"zhu zi lin yi","POIUID":17454214,"Angle":279.634},"geometry":{"x":114.00798356605962,"y":22.536468976839505}},{"attributes":{"FID":43,"OBJECTID":44,"RecordID":868991574,"MapID":650018001,"X":100,"Y":20,"Name":"园博园2","DistrictID":440304,"SearchCode":19160100,"PinYin":"yuan bo yuan er","POIUID":17454208,"Angle":277.92},"geometry":{"x":113.99699142141283,"y":22.534633976839505}},{"attributes":{"FID":44,"OBJECTID":45,"RecordID":868990389,"MapID":650018001,"X":100,"Y":20,"Name":"园博园3","DistrictID":440304,"SearchCode":19160100,"PinYin":"yuan bo yuan san","POIUID":87166516,"Angle":275.863},"geometry":{"x":113.99643316405677,"y":22.534576800255195}},{"attributes":{"FID":45,"OBJECTID":46,"RecordID":868990519,"MapID":650018001,"X":100,"Y":20,"Name":"深南香蜜立交1","DistrictID":440304,"SearchCode":19160100,"PinYin":"shen nan xiang mi li jiao yi","POIUID":17404104,"Angle":280.009},"geometry":{"x":114.02566285535322,"y":22.539506530371575}},{"attributes":{"FID":46,"OBJECTID":47,"RecordID":868990556,"MapID":650018001,"X":100,"Y":20,"Name":"深航大厦","DistrictID":440304,"SearchCode":19160100,"PinYin":"shen hang da sha","POIUID":173033897,"Angle":280.412},"geometry":{"x":114.01529422541856,"y":22.537697134013847}},{"attributes":{"FID":47,"OBJECTID":48,"RecordID":868990628,"MapID":650018001,"X":100,"Y":20,"Name":"深圳人才园2","DistrictID":440304,"SearchCode":19160100,"PinYin":"shen zhen ren cai yuan er","POIUID":17454171,"Angle":279.222},"geometry":{"x":114.00451942767661,"y":22.53589479085953}},{"attributes":{"FID":48,"OBJECTID":49,"RecordID":868990793,"MapID":650018001,"X":100,"Y":20,"Name":"竹子林2","DistrictID":440304,"SearchCode":19160100,"PinYin":"zhu zi lin er","POIUID":17409543,"Angle":99.8542},"geometry":{"x":114.0072125723234,"y":22.537025852221319}},{"attributes":{"FID":49,"OBJECTID":50,"RecordID":868990800,"MapID":649018048,"X":100,"Y":20,"Name":"世界之窗1","DistrictID":440305,"SearchCode":19160100,"PinYin":"shi jie zhi chuang yi","POIUID":17408596,"Angle":249.673},"geometry":{"x":113.96952291296446,"y":22.539435205389942}},{"attributes":{"FID":50,"OBJECTID":51,"RecordID":868989545,"MapID":649018048,"X":100,"Y":20,"Name":"世界之窗2","DistrictID":440305,"SearchCode":19160100,"PinYin":"shi jie zhi chuang er","POIUID":17454165,"Angle":70.7724},"geometry":{"x":113.9675998553532,"y":22.540817566059619}},{"attributes":{"FID":51,"OBJECTID":52,"RecordID":868989779,"MapID":649018048,"X":100,"Y":20,"Name":"侨城东地铁站","DistrictID":440305,"SearchCode":19160100,"PinYin":"qiao cheng dong di tie zhan","POIUID":17404560,"Angle":255.703},"geometry":{"x":113.99024938572478,"y":22.535322398252337}},{"attributes":{"FID":52,"OBJECTID":53,"RecordID":868988989,"MapID":649018048,"X":100,"Y":20,"Name":"锦绣中华1","DistrictID":440305,"SearchCode":19160100,"PinYin":"jin xiu zhong hua yi","POIUID":17411543,"Angle":269.258},"geometry":{"x":113.98299359486523,"y":22.536124523489161}},{"attributes":{"FID":53,"OBJECTID":54,"RecordID":868988216,"MapID":649018048,"X":100,"Y":20,"Name":"世界之窗2","DistrictID":440305,"SearchCode":19160100,"PinYin":"shi jie zhi chuang er","POIUID":17406658,"Angle":250.864},"geometry":{"x":113.96654467501838,"y":22.540500964311953}},{"attributes":{"FID":54,"OBJECTID":55,"RecordID":868987036,"MapID":649018048,"X":100,"Y":20,"Name":"华桥城地铁站","DistrictID":440305,"SearchCode":19160100,"PinYin":"hua qiao cheng di tie zhan","POIUID":17406821,"Angle":268.956},"geometry":{"x":113.980287,"y":22.536116433940379}},{"attributes":{"FID":55,"OBJECTID":56,"RecordID":868986900,"MapID":649018048,"X":100,"Y":20,"Name":"锦绣中华2","DistrictID":440305,"SearchCode":19160100,"PinYin":"jin xiu zhong hua er","POIUID":17404207,"Angle":269.255},"geometry":{"x":113.98566412075159,"y":22.536064050110205}},{"attributes":{"FID":56,"OBJECTID":57,"RecordID":868985987,"MapID":649018048,"X":100,"Y":20,"Name":"世界之窗1","DistrictID":440305,"SearchCode":19160100,"PinYin":"shi jie zhi chuang yi","POIUID":17404221,"Angle":69.7562},"geometry":{"x":113.97015794865251,"y":22.539859517844022}},{"attributes":{"FID":57,"OBJECTID":58,"RecordID":868985668,"MapID":649018048,"X":100,"Y":20,"Name":"侨城东地铁站","DistrictID":440305,"SearchCode":19160100,"PinYin":"qiao cheng dong di tie zhan","POIUID":17404562,"Angle":76.2019},"geometry":{"x":113.990043379461,"y":22.535937845957548}},{"attributes":{"FID":58,"OBJECTID":59,"RecordID":868982688,"MapID":649018048,"X":100,"Y":20,"Name":"何香凝美术馆2","DistrictID":440305,"SearchCode":19160100,"PinYin":"he xiang ning mei shu guan er","POIUID":17454096,"Angle":64.5295},"geometry":{"x":113.97569127676603,"y":22.537484415149052}},{"attributes":{"FID":59,"OBJECTID":60,"RecordID":868982968,"MapID":649018048,"X":100,"Y":20,"Name":"何香凝美术馆","DistrictID":440305,"SearchCode":19160100,"PinYin":"he xiang ning mei shu guan","POIUID":17403896,"Angle":246.992},"geometry":{"x":113.97621536005103,"y":22.536632003131885}},{"attributes":{"FID":60,"OBJECTID":61,"RecordID":868983285,"MapID":649018048,"X":100,"Y":20,"Name":"华桥城地铁站","DistrictID":440305,"SearchCode":19160100,"PinYin":"hua qiao cheng di tie zhan","POIUID":17407545,"Angle":89.2599},"geometry":{"x":113.9785070964312,"y":22.53670825171093}},{"attributes":{"FID":61,"OBJECTID":62,"RecordID":868983511,"MapID":649018048,"X":100,"Y":20,"Name":"锦绣中华","DistrictID":440305,"SearchCode":19160100,"PinYin":"jin xiu zhong hua","POIUID":174532237,"Angle":89.2599},"geometry":{"x":113.98655997432627,"y":22.5364439016742}},{"attributes":{"FID":62,"OBJECTID":63,"RecordID":868983718,"MapID":649018048,"X":100,"Y":20,"Name":"锦绣中华2","DistrictID":440305,"SearchCode":19160100,"PinYin":"jin xiu zhong hua er","POIUID":136662022,"Angle":89.2599},"geometry":{"x":113.98628340513474,"y":22.536448820283802}},{"attributes":{"FID":63,"OBJECTID":64,"RecordID":868984559,"MapID":649018048,"X":100,"Y":20,"Name":"白石洲3","DistrictID":440305,"SearchCode":19160100,"PinYin":"bai shi zhou san","POIUID":17407686,"Angle":68.4008},"geometry":{"x":113.96191494865252,"y":22.542952604879556}},{"attributes":{"FID":64,"OBJECTID":65,"RecordID":868981066,"MapID":649018048,"X":100,"Y":20,"Name":"白石洲1","DistrictID":440305,"SearchCode":19160100,"PinYin":"bai shi zhou yi","POIUID":17407521,"Angle":245.5},"geometry":{"x":113.96502348215598,"y":22.541115723233961}},{"attributes":{"FID":65,"OBJECTID":66,"RecordID":868981459,"MapID":649018048,"X":100,"Y":20,"Name":"白石洲1","DistrictID":440305,"SearchCode":19160100,"PinYin":"bai shi zhou yi","POIUID":17407524,"Angle":69.8039},"geometry":{"x":113.964044,"y":22.542142999999999}},{"attributes":{"FID":66,"OBJECTID":67,"RecordID":868981555,"MapID":649018048,"X":100,"Y":20,"Name":"白石洲2","DistrictID":440305,"SearchCode":19160100,"PinYin":"bai shi zhou er","POIUID":17403895,"Angle":250.251},"geometry":{"x":113.96383828929359,"y":22.541568626802771}},{"attributes":{"FID":67,"OBJECTID":68,"RecordID":868982029,"MapID":649018048,"X":100,"Y":20,"Name":"白石洲2","DistrictID":440305,"SearchCode":19160100,"PinYin":"bai shi zhou er","POIUID":17403907,"Angle":69.8039},"geometry":{"x":113.963905,"y":22.542193999999999}},{"attributes":{"FID":68,"OBJECTID":69,"RecordID":868982030,"MapID":649018048,"X":100,"Y":20,"Name":"白石洲3","DistrictID":440305,"SearchCode":19160100,"PinYin":"bai shi zhou san","POIUID":17406241,"Angle":251.008},"geometry":{"x":113.96136348215597,"y":22.542489343772957}},{"attributes":{"FID":69,"OBJECTID":70,"RecordID":868982259,"MapID":649018048,"X":100,"Y":20,"Name":"何香凝美术馆1","DistrictID":440305,"SearchCode":19160100,"PinYin":"he xiang ning mei shu guan yi","POIUID":17404220,"Angle":64.5295},"geometry":{"x":113.97585670757454,"y":22.537404225418548}},{"attributes":{"FID":70,"OBJECTID":73,"RecordID":868984802,"MapID":650018001,"X":114.105,"Y":22.5443,"Name":"地王大厦","DistrictID":440303,"SearchCode":19160100,"PinYin":"di wang da sha","POIUID":17403901,"Angle":281.791},"geometry":{"x":114.10492985222132,"y":22.544263157174338}},{"attributes":{"FID":71,"OBJECTID":74,"RecordID":868985007,"MapID":650018001,"X":114.104,"Y":22.5445,"Name":"地王大厦","DistrictID":440303,"SearchCode":19160100,"PinYin":"di wang da sha","POIUID":17403904,"Angle":101.216},"geometry":{"x":114.1043774308085,"y":22.544472135251134}},{"attributes":{"FID":72,"OBJECTID":75,"RecordID":868985212,"MapID":650018002,"X":114.121,"Y":22.5469,"Name":"湖贝地铁站","DistrictID":440303,"SearchCode":19160100,"PinYin":"hu bei di tie zhan","POIUID":17404031,"Angle":279.181},"geometry":{"x":114.12082614151491,"y":22.546930578587169}},{"attributes":{"FID":73,"OBJECTID":76,"RecordID":868985213,"MapID":650018001,"X":114.119,"Y":22.5469,"Name":"湖贝地铁站","DistrictID":440303,"SearchCode":19160100,"PinYin":"hu bei di tie zhan","POIUID":17404046,"Angle":99.3995},"geometry":{"x":114.11936514464678,"y":22.546974228550443}},{"attributes":{"FID":74,"OBJECTID":77,"RecordID":868985634,"MapID":650018001,"X":114.112,"Y":22.5457,"Name":"门诊部2","DistrictID":440303,"SearchCode":19160100,"PinYin":"men zhen bu er","POIUID":17411331,"Angle":99.8726},"geometry":{"x":114.11171285848509,"y":22.545733276766036}},{"attributes":{"FID":75,"OBJECTID":78,"RecordID":868986019,"MapID":650018001,"X":114.115,"Y":22.5459,"Name":"门诊部1","DistrictID":440303,"SearchCode":19160100,"PinYin":"men zhen bu yi","POIUID":17410986,"Angle":279.099},"geometry":{"x":114.11471256919152,"y":22.545926443336043}},{"attributes":{"FID":76,"OBJECTID":79,"RecordID":868986070,"MapID":650018001,"X":114.109,"Y":22.545,"Name":"人民桥","DistrictID":440303,"SearchCode":19160100,"PinYin":"ren min qiao","POIUID":17404030,"Angle":278.937},"geometry":{"x":114.10916078459576,"y":22.545047363182924}},{"attributes":{"FID":77,"OBJECTID":80,"RecordID":868986370,"MapID":650018001,"X":114.104,"Y":22.5441,"Name":"深圳书城","DistrictID":440303,"SearchCode":19160100,"PinYin":"shen zhen shu cheng","POIUID":17404029,"Angle":281.573},"geometry":{"x":114.10393695178441,"y":22.544067819665159}},{"attributes":{"FID":78,"OBJECTID":82,"RecordID":868987372,"MapID":650018002,"X":114.124,"Y":22.5477,"Name":"京鹏大厦","DistrictID":440303,"SearchCode":19160100,"PinYin":"jing peng da sha","POIUID":17404045,"Angle":99.5463},"geometry":{"x":114.12383671697019,"y":22.547708849089432}},{"attributes":{"FID":79,"OBJECTID":85,"RecordID":868988201,"MapID":650018001,"X":114.104,"Y":22.5443,"Name":"深圳书城","DistrictID":440303,"SearchCode":19160100,"PinYin":"shen zhen shu cheng","POIUID":17404048,"Angle":101.216},"geometry":{"x":114.103711,"y":22.544333999999999}},{"attributes":{"FID":80,"OBJECTID":86,"RecordID":868988990,"MapID":650018002,"X":114.124,"Y":22.5475,"Name":"京鹏大厦","DistrictID":440303,"SearchCode":19160100,"PinYin":"jing peng da sha","POIUID":17404032,"Angle":279.37},"geometry":{"x":114.12411716405676,"y":22.547469559177205}},{"attributes":{"FID":81,"OBJECTID":87,"RecordID":868989915,"MapID":650018001,"X":114.113,"Y":22.5459,"Name":"门诊部1","DistrictID":440303,"SearchCode":19160100,"PinYin":"men zhen bu yi","POIUID":17404603,"Angle":99.1038},"geometry":{"x":114.11307102567375,"y":22.54595406136179}},{"attributes":{"FID":82,"OBJECTID":91,"RecordID":868991865,"MapID":650018001,"X":114.108,"Y":22.5451,"Name":"人民桥","DistrictID":440303,"SearchCode":19160100,"PinYin":"ren min qiao","POIUID":17404047,"Angle":97.9742},"geometry":{"x":114.10765109643118,"y":22.545093276766039}},{"attributes":{"FID":83,"OBJECTID":92,"RecordID":868989743,"MapID":650018001,"X":114.112,"Y":22.5455,"Name":"门诊部2","DistrictID":440303,"SearchCode":19160100,"PinYin":"men zhen bu er","POIUID":17406559,"Angle":279.7},"geometry":{"x":114.1122481415149,"y":22.545543292425474}},{"attributes":{"FID":84,"OBJECTID":93,"RecordID":868989801,"MapID":650018001,"X":114.075,"Y":22.5429,"Name":"上海宾馆西3","DistrictID":440304,"SearchCode":19160100,"PinYin":"shang hai bin guan xi san","POIUID":17454154,"Angle":271.249},"geometry":{"x":114.0754005691915,"y":22.542851892935861}},{"attributes":{"FID":85,"OBJECTID":94,"RecordID":868992003,"MapID":650018001,"X":114.096,"Y":22.5433,"Name":"新闻大厦","DistrictID":440304,"SearchCode":19160100,"PinYin":"xin wen da sha","POIUID":17406236,"Angle":271.536},"geometry":{"x":114.09633659486525,"y":22.543314318099213}},{"attributes":{"FID":86,"OBJECTID":95,"RecordID":868992006,"MapID":650018001,"X":114.086,"Y":22.5431,"Name":"兴华宾馆西","DistrictID":440304,"SearchCode":19160100,"PinYin":"xing hua bin guan xi","POIUID":17404028,"Angle":270.897},"geometry":{"x":114.086445,"y":22.543118}},{"attributes":{"FID":87,"OBJECTID":96,"RecordID":868990007,"MapID":650018001,"X":114.089,"Y":22.5431,"Name":"兴华宾馆东","DistrictID":440304,"SearchCode":19160100,"PinYin":"xing hua bin guan dong","POIUID":17404280,"Angle":271.293},"geometry":{"x":114.089421,"y":22.543151999999999}},{"attributes":{"FID":88,"OBJECTID":97,"RecordID":868990293,"MapID":650018001,"X":114.072,"Y":22.5431,"Name":"田面","DistrictID":440304,"SearchCode":19160100,"PinYin":"tian mian","POIUID":17404000,"Angle":91.1523},"geometry":{"x":114.07245808448361,"y":22.543081620538992}},{"attributes":{"FID":89,"OBJECTID":98,"RecordID":868990548,"MapID":650018001,"X":114.078,"Y":22.5432,"Name":"上海宾馆","DistrictID":440304,"SearchCode":19160100,"PinYin":"shang hai bin guan","POIUID":17404051,"Angle":91.3786},"geometry":{"x":114.07838757232339,"y":22.543228710706416}},{"attributes":{"FID":90,"OBJECTID":99,"RecordID":868990801,"MapID":650018001,"X":114.094,"Y":22.5433,"Name":"市委","DistrictID":440304,"SearchCode":19160100,"PinYin":"shi wei","POIUID":17403947,"Angle":271.636},"geometry":{"x":114.094483,"y":22.543275999999999}},{"attributes":{"FID":91,"OBJECTID":100,"RecordID":868989517,"MapID":650018001,"X":114.078,"Y":22.543,"Name":"上海宾馆","DistrictID":440304,"SearchCode":19160100,"PinYin":"shang hai bin guan","POIUID":17404027,"Angle":271.273},"geometry":{"x":114.0782041897305,"y":22.542940118354409}},{"attributes":{"FID":92,"OBJECTID":101,"RecordID":868989557,"MapID":650018001,"X":114.08,"Y":22.543,"Name":"上海宾馆东","DistrictID":440304,"SearchCode":19160100,"PinYin":"shang hai bin guan dong","POIUID":17403900,"Angle":271.566},"geometry":{"x":114.080187,"y":22.542998999999998}},{"attributes":{"FID":93,"OBJECTID":102,"RecordID":868988526,"MapID":650018001,"X":114.074,"Y":22.5428,"Name":"田面","DistrictID":440304,"SearchCode":19160100,"PinYin":"tian mian","POIUID":17403899,"Angle":269.992},"geometry":{"x":114.07362640513476,"y":22.542824241077991}},{"attributes":{"FID":94,"OBJECTID":103,"RecordID":868988660,"MapID":650018001,"X":114.089,"Y":22.5434,"Name":"兴华宾馆东","DistrictID":440304,"SearchCode":19160100,"PinYin":"xing hua bin guan dong","POIUID":17404507,"Angle":91.1054},"geometry":{"x":114.088745,"y":22.543455999999999}},{"attributes":{"FID":95,"OBJECTID":104,"RecordID":868987806,"MapID":650018001,"X":114.087,"Y":22.5434,"Name":"兴华宾馆西","DistrictID":440304,"SearchCode":19160100,"PinYin":"xing hua bin guan xi","POIUID":17404050,"Angle":91.5109},"geometry":{"x":114.08699799999999,"y":22.543402}},{"attributes":{"FID":96,"OBJECTID":105,"RecordID":868983673,"MapID":650018001,"X":114.089,"Y":22.5431,"Name":"华联大厦","DistrictID":440304,"SearchCode":19160100,"PinYin":"hua lian da sha","POIUID":87181162,"Angle":271.293},"geometry":{"x":114.088921,"y":22.543137999999999}},{"attributes":{"FID":97,"OBJECTID":106,"RecordID":868987444,"MapID":650018001,"X":114.082,"Y":22.5432,"Name":"赛格广场","DistrictID":440304,"SearchCode":19160100,"PinYin":"sai ge guang chang","POIUID":174536964,"Angle":90.5677},"geometry":{"x":114.08223428616169,"y":22.54333508200904}},{"attributes":{"FID":98,"OBJECTID":107,"RecordID":868987488,"MapID":650018001,"X":114.096,"Y":22.5436,"Name":"市委","DistrictID":440304,"SearchCode":19160100,"PinYin":"shi wei","POIUID":17403999,"Angle":91.2609},"geometry":{"x":114.095738,"y":22.543566999999999}},{"attributes":{"FID":99,"OBJECTID":108,"RecordID":868986758,"MapID":650018001,"X":114.09,"Y":22.5435,"Name":"华联大厦","DistrictID":440304,"SearchCode":19160100,"PinYin":"hua lian da sha","POIUID":17452011,"Angle":90.202},"geometry":{"x":114.089744,"y":22.543472999999999}},{"attributes":{"FID":100,"OBJECTID":109,"RecordID":868985354,"MapID":650018001,"X":114.082,"Y":22.5431,"Name":"赛格广场","DistrictID":440304,"SearchCode":19160100,"PinYin":"sai ge guang chang","POIUID":174536965,"Angle":271.938},"geometry":{"x":114.0825904245447,"y":22.543022484050578}},{"attributes":{"FID":101,"OBJECTID":110,"RecordID":868985370,"MapID":650018001,"X":114.075,"Y":22.5432,"Name":"上海宾馆西3","DistrictID":440304,"SearchCode":19160100,"PinYin":"shang hai bin guan xi san","POIUID":17454157,"Angle":90.8466},"geometry":{"x":114.075053,"y":22.543187276766034}},{"attributes":{"FID":102,"OBJECTID":111,"RecordID":868985504,"MapID":650018001,"X":114.08,"Y":22.5432,"Name":"上海宾馆东","DistrictID":440304,"SearchCode":19160100,"PinYin":"shang hai bin guan dong","POIUID":17403905,"Angle":91.3604},"geometry":{"x":114.07979899999999,"y":22.54325123481421}}]}